{
  "norad_id": 63665,
  "name": "STARLINK-11672 [DTC]",
  "history": [
    {
      "epoch": "2026-03-28T11:47:30.592320",
      "apogee_km": 357.1023423353954,
      "perigee_km": 355.4015050688249,
      "latitude_deg": 41.594271577947794,
      "longitude_deg": -126.3326751999557,
      "semi_major_axis_km": 6734.38892370211,
      "eccentricity": 0.00012628,
      "inclination_deg": 43.0018,
      "raan_deg": 164.658,
      "arg_perigee_deg": 149.1069,
      "mean_anomaly_deg": 210.9873,
      "mean_motion_rev_day": 15.70925071
    }
  ]
}